{"fetched_at":"2026-03-29T02:12:04Z","count":15717,"tles":[{"name":"HYDRA-W","line1":"1 63490U 25052BL  26087.21893895  .00384209  00000+0  27698-2 0  9993","line2":"2 63490  97.3884 349.3439 0007216  87.2724 272.9365 15.72409603 58097","category":"Other"}]}